[{"OBJECT_NAME":"AT&T T-16","OBJECT_ID":"2019-034A","EPOCH":"2026-03-03T03:41:38.902272","MEAN_MOTION":1.00268415,"ECCENTRICITY":6.98e-5,"INCLINATION":0.0225,"RA_OF_ASC_NODE":100.7588,"ARG_OF_PERICENTER":71.3197,"MEAN_ANOMALY":303.3702,"EPHEMERIS_TYPE":0,"CLASSIFICATION_TYPE":"U","NORAD_CAT_ID":44333,"ELEMENT_SET_NO":999,"REV_AT_EPOCH":2457,"BSTAR":0,"MEAN_MOTION_DOT":-1.3e-6,"MEAN_MOTION_DDOT":0},{"OBJECT_NAME":"EUTELSAT 7C","OBJECT_ID":"2019-034B","EPOCH":"2026-03-02T09:26:38.658336","MEAN_MOTION":1.00270229,"ECCENTRICITY":0.00033706,"INCLINATION":0.0725,"RA_OF_ASC_NODE":178.9133,"ARG_OF_PERICENTER":147.8289,"MEAN_ANOMALY":342.0592,"EPHEMERIS_TYPE":0,"CLASSIFICATION_TYPE":"U","NORAD_CAT_ID":44334,"ELEMENT_SET_NO":999,"REV_AT_EPOCH":576,"BSTAR":0,"MEAN_MOTION_DOT":3.0e-7,"MEAN_MOTION_DDOT":0},{"OBJECT_NAME":"BEIDOU-3 IGSO-2","OBJECT_ID":"2019-035A","EPOCH":"2026-02-26T16:31:51.989952","MEAN_MOTION":1.00247364,"ECCENTRICITY":0.00387345,"INCLINATION":55.2338,"RA_OF_ASC_NODE":159.8353,"ARG_OF_PERICENTER":206.4752,"MEAN_ANOMALY":153.7223,"EPHEMERIS_TYPE":0,"CLASSIFICATION_TYPE":"U","NORAD_CAT_ID":44337,"ELEMENT_SET_NO":999,"REV_AT_EPOCH":2456,"BSTAR":0,"MEAN_MOTION_DOT":-1.76e-6,"MEAN_MOTION_DDOT":0},{"OBJECT_NAME":"MERIDIAN 8","OBJECT_ID":"2019-046A","EPOCH":"2026-03-03T01:02:52.979136","MEAN_MOTION":2.00622693,"ECCENTRICITY":0.704195,"INCLINATION":63.0175,"RA_OF_ASC_NODE":64.328,"ARG_OF_PERICENTER":274.5643,"MEAN_ANOMALY":15.0735,"EPHEMERIS_TYPE":0,"CLASSIFICATION_TYPE":"U","NORAD_CAT_ID":44453,"ELEMENT_SET_NO":999,"REV_AT_EPOCH":4821,"BSTAR":0,"MEAN_MOTION_DOT":-7.2e-7,"MEAN_MOTION_DDOT":0},{"OBJECT_NAME":"COSMOS 2539","OBJECT_ID":"2019-048A","EPOCH":"2026-03-03T07:17:14.009568","MEAN_MOTION":1.00273779,"ECCENTRICITY":8.71e-5,"INCLINATION":0.0156,"RA_OF_ASC_NODE":114.284,"ARG_OF_PERICENTER":217.6637,"MEAN_ANOMALY":310.3911,"EPHEMERIS_TYPE":0,"CLASSIFICATION_TYPE":"U","NORAD_CAT_ID":44457,"ELEMENT_SET_NO":999,"REV_AT_EPOCH":2416,"BSTAR":0,"MEAN_MOTION_DOT":6.6e-7,"MEAN_MOTION_DDOT":0},{"OBJECT_NAME":"BREEZE-M R/B","OBJECT_ID":"2019-048B","EPOCH":"2026-03-02T09:02:47.005152","MEAN_MOTION":0.90283735,"ECCENTRICITY":0.0733713,"INCLINATION":6.5856,"RA_OF_ASC_NODE":73.9937,"ARG_OF_PERICENTER":127.3732,"MEAN_ANOMALY":239.8191,"EPHEMERIS_TYPE":0,"CLASSIFICATION_TYPE":"U","NORAD_CAT_ID":44458,"ELEMENT_SET_NO":999,"REV_AT_EPOCH":2159,"BSTAR":0,"MEAN_MOTION_DOT":-2.08e-6,"MEAN_MOTION_DDOT":0},{"OBJECT_NAME":"EDRS-C","OBJECT_ID":"2019-049A","EPOCH":"2026-03-02T20:00:38.439072","MEAN_MOTION":1.00272553,"ECCENTRICITY":0.00013025,"INCLINATION":0.0269,"RA_OF_ASC_NODE":123.914,"ARG_OF_PERICENTER":217.0025,"MEAN_ANOMALY":262.3325,"EPHEMERIS_TYPE":0,"CLASSIFICATION_TYPE":"U","NORAD_CAT_ID":44475,"ELEMENT_SET_NO":999,"REV_AT_EPOCH":2414,"BSTAR":0,"MEAN_MOTION_DOT":-2.79e-6,"MEAN_MOTION_DDOT":0},{"OBJECT_NAME":"INTELSAT 39 (IS-39)","OBJECT_ID":"2019-049B","EPOCH":"2026-03-02T09:31:38.538048","MEAN_MOTION":1.00269151,"ECCENTRICITY":6.167e-5,"INCLINATION":0.0272,"RA_OF_ASC_NODE":143.6954,"ARG_OF_PERICENTER":12.8828,"MEAN_ANOMALY":208.4639,"EPHEMERIS_TYPE":0,"CLASSIFICATION_TYPE":"U","NORAD_CAT_ID":44476,"ELEMENT_SET_NO":999,"REV_AT_EPOCH":2405,"BSTAR":0,"MEAN_MOTION_DOT":0,"MEAN_MOTION_DDOT":0},{"OBJECT_NAME":"AMOS-17","OBJECT_ID":"2019-050A","EPOCH":"2026-03-03T02:10:35.897664","MEAN_MOTION":1.00270347,"ECCENTRICITY":0.0001638,"INCLINATION":0.0378,"RA_OF_ASC_NODE":291.1894,"ARG_OF_PERICENTER":44.0056,"MEAN_ANOMALY":235.2845,"EPHEMERIS_TYPE":0,"CLASSIFICATION_TYPE":"U","NORAD_CAT_ID":44479,"ELEMENT_SET_NO":999,"REV_AT_EPOCH":2412,"BSTAR":0,"MEAN_MOTION_DOT":9.3e-7,"MEAN_MOTION_DDOT":0},{"OBJECT_NAME":"AEHF-5 (USA 292)","OBJECT_ID":"2019-051A","EPOCH":"2026-03-03T00:49:23.825856","MEAN_MOTION":1.00272411,"ECCENTRICITY":0.0071617,"INCLINATION":1.565,"RA_OF_ASC_NODE":328.6295,"ARG_OF_PERICENTER":3.2518,"MEAN_ANOMALY":294.3525,"EPHEMERIS_TYPE":0,"CLASSIFICATION_TYPE":"U","NORAD_CAT_ID":44481,"ELEMENT_SET_NO":999,"REV_AT_EPOCH":2419,"BSTAR":0,"MEAN_MOTION_DOT":-2.74e-6,"MEAN_MOTION_DDOT":0},{"OBJECT_NAME":"CZ-3C DEB","OBJECT_ID":"2010-057BM","EPOCH":"2026-02-26T04:46:34.591872","MEAN_MOTION":2.23732102,"ECCENTRICITY":0.7187168,"INCLINATION":20.0244,"RA_OF_ASC_NODE":102.4588,"ARG_OF_PERICENTER":154.5844,"MEAN_ANOMALY":273.2307,"EPHEMERIS_TYPE":0,"CLASSIFICATION_TYPE":"U","NORAD_CAT_ID":44527,"ELEMENT_SET_NO":999,"REV_AT_EPOCH":7592,"BSTAR":-0.00016975,"MEAN_MOTION_DOT":4.4e-7,"MEAN_MOTION_DDOT":0},{"OBJECT_NAME":"COSMOS 2541","OBJECT_ID":"2019-065A","EPOCH":"2026-03-03T02:27:12.650400","MEAN_MOTION":2.00629501,"ECCENTRICITY":0.6479102,"INCLINATION":62.7157,"RA_OF_ASC_NODE":166.81,"ARG_OF_PERICENTER":272.2071,"MEAN_ANOMALY":20.4041,"EPHEMERIS_TYPE":0,"CLASSIFICATION_TYPE":"U","NORAD_CAT_ID":44552,"ELEMENT_SET_NO":999,"REV_AT_EPOCH":4709,"BSTAR":0,"MEAN_MOTION_DOT":-2.0e-7,"MEAN_MOTION_DDOT":0},{"OBJECT_NAME":"FREGAT R/B","OBJECT_ID":"2019-065B","EPOCH":"2026-02-23T04:05:00.685248","MEAN_MOTION":2.0152903,"ECCENTRICITY":0.66789721,"INCLINATION":63.3412,"RA_OF_ASC_NODE":164.885,"ARG_OF_PERICENTER":261.4686,"MEAN_ANOMALY":23.5611,"EPHEMERIS_TYPE":0,"CLASSIFICATION_TYPE":"U","NORAD_CAT_ID":44553,"ELEMENT_SET_NO":999,"REV_AT_EPOCH":4720,"BSTAR":0,"MEAN_MOTION_DOT":-4.9e-6,"MEAN_MOTION_DDOT":0},{"OBJECT_NAME":"COSMOS 1897 DEB","OBJECT_ID":"1987-096G","EPOCH":"2026-03-02T11:21:04.696128","MEAN_MOTION":1.00472452,"ECCENTRICITY":0.00232017,"INCLINATION":11.0166,"RA_OF_ASC_NODE":327.0127,"ARG_OF_PERICENTER":298.4922,"MEAN_ANOMALY":279.9584,"EPHEMERIS_TYPE":0,"CLASSIFICATION_TYPE":"U","NORAD_CAT_ID":44572,"ELEMENT_SET_NO":999,"REV_AT_EPOCH":6991,"BSTAR":0,"MEAN_MOTION_DOT":7.8e-7,"MEAN_MOTION_DDOT":0},{"OBJECT_NAME":"ARIANE 44LP DEB","OBJECT_ID":"1992-060J","EPOCH":"2026-03-02T16:39:41.853024","MEAN_MOTION":2.23467524,"ECCENTRICITY":0.71923597,"INCLINATION":7.193,"RA_OF_ASC_NODE":8.6205,"ARG_OF_PERICENTER":319.6035,"MEAN_ANOMALY":332.3951,"EPHEMERIS_TYPE":0,"CLASSIFICATION_TYPE":"U","NORAD_CAT_ID":44573,"ELEMENT_SET_NO":999,"REV_AT_EPOCH":9715,"BSTAR":0.011768289,"MEAN_MOTION_DOT":8.95e-6,"MEAN_MOTION_DDOT":0},{"OBJECT_NAME":"LUCH DEB","OBJECT_ID":"1994-082G","EPOCH":"2026-03-01T19:38:55.089024","MEAN_MOTION":1.00702805,"ECCENTRICITY":0.00166215,"INCLINATION":14.6058,"RA_OF_ASC_NODE":354.8657,"ARG_OF_PERICENTER":88.2948,"MEAN_ANOMALY":86.3836,"EPHEMERIS_TYPE":0,"CLASSIFICATION_TYPE":"U","NORAD_CAT_ID":44582,"ELEMENT_SET_NO":999,"REV_AT_EPOCH":4516,"BSTAR":0,"MEAN_MOTION_DOT":-2.14e-6,"MEAN_MOTION_DDOT":0},{"OBJECT_NAME":"SL-12 DEB","OBJECT_ID":"1999-027E","EPOCH":"2026-03-02T17:49:05.202048","MEAN_MOTION":1.46032263,"ECCENTRICITY":0.32611746,"INCLINATION":7.1428,"RA_OF_ASC_NODE":125.3777,"ARG_OF_PERICENTER":155.4856,"MEAN_ANOMALY":225.9104,"EPHEMERIS_TYPE":0,"CLASSIFICATION_TYPE":"U","NORAD_CAT_ID":44588,"ELEMENT_SET_NO":999,"REV_AT_EPOCH":6550,"BSTAR":0,"MEAN_MOTION_DOT":-8.7e-7,"MEAN_MOTION_DDOT":0}]
