AT&T T-16               
1 44333U 19034A   26062.15392248 -.00000130  00000+0  00000+0 0  9997
2 44333   0.0225 100.7588 0000698  71.3197 303.3702  1.00268415 24571
EUTELSAT 7C             
1 44334U 19034B   26061.39350299  .00000030  00000+0  00000+0 0  9991
2 44334   0.0725 178.9133 0003370 147.8289 342.0592  1.00270229  5764
BEIDOU-3 IGSO-2         
1 44337U 19035A   26057.68879618 -.00000176  00000+0  00000+0 0  9995
2 44337  55.2338 159.8353 0038734 206.4752 153.7223  1.00247364 24561
MERIDIAN 8              
1 44453U 19046A   26062.04366874 -.00000072  00000+0  00000+0 0  9992
2 44453  63.0175  64.3280 7041950 274.5643  15.0735  2.00622693 48210
COSMOS 2539             
1 44457U 19048A   26062.30363437  .00000066  00000+0  00000+0 0  9991
2 44457   0.0156 114.2840 0000871 217.6637 310.3911  1.00273779 24163
BREEZE-M R/B            
1 44458U 19048B   26061.37693293 -.00000208  00000+0  00000+0 0  9993
2 44458   6.5856  73.9937 0733713 127.3732 239.8191  0.90283735 21591
EDRS-C                  
1 44475U 19049A   26061.83377823 -.00000279  00000+0  00000+0 0  9990
2 44475   0.0269 123.9140 0001302 217.0025 262.3325  1.00272553 24145
INTELSAT 39 (IS-39)     
1 44476U 19049B   26061.39697382  .00000000  00000+0  00000+0 0  9998
2 44476   0.0272 143.6954 0000616  12.8828 208.4639  1.00269151 24050
AMOS-17                 
1 44479U 19050A   26062.09069326  .00000093  00000+0  00000+0 0  9994
2 44479   0.0378 291.1894 0001638  44.0056 235.2845  1.00270347 24121
AEHF-5 (USA 292)        
1 44481U 19051A   26062.03430354 -.00000274  00000+0  00000+0 0  9997
2 44481   1.5650 328.6295 0071617   3.2518 294.3525  1.00272411 24190
CZ-3C DEB               
1 44527U 10057BM  26057.19901148  .00000044  00000+0 -16975-3 0  9997
2 44527  20.0244 102.4588 7187168 154.5844 273.2307  2.23732102 75922
COSMOS 2541             
1 44552U 19065A   26062.10222975 -.00000020  00000+0  00000+0 0  9996
2 44552  62.7157 166.8100 6479102 272.2071  20.4041  2.00629501 47098
FREGAT R/B              
1 44553U 19065B   26054.17014682 -.00000490  00000+0  00000+0 0  9990
2 44553  63.3412 164.8850 6678972 261.4686  23.5611  2.01529030 47205
COSMOS 1897 DEB         
1 44572U 87096G   26061.47297102  .00000078  00000+0  00000+0 0  9992
2 44572  11.0166 327.0127 0023201 298.4922 279.9584  1.00472452 69919
ARIANE 44LP DEB         
1 44573U 92060J   26061.69423441  .00000895  00000+0  11768-1 0  9993
2 44573   7.1930   8.6205 7192359 319.6035 332.3951  2.23467524 97152
LUCH DEB                
1 44582U 94082G   26060.81869316 -.00000214  00000+0  00000+0 0  9998
2 44582  14.6058 354.8657 0016621  88.2948  86.3836  1.00702805 45165
SL-12 DEB               
1 44588U 99027E   26061.74242132 -.00000087  00000+0  00000+0 0  9990
2 44588   7.1428 125.3777 3261174 155.4856 225.9104  1.46032263 65509
